start=new Date('2023-02-09T00:00:00.000Z').valueOf();
sats=[{"RA_OF_ASC_NODE":"154.0364","REV_AT_EPOCH":"4131","FILE":"3780893","GP_ID":"224860743","ELEMENT_SET_NO":"999","OBJECT_TYPE":"PAYLOAD","REF_FRAME":"TEME","COUNTRY_CODE":"US","INCLINATION":"53.2167","TLE_LINE1":"1 52683U 22053AD  23039.78115614  .00062347  00000-0  38961-2 0  9997","DECAY_DATE":null,"MEAN_MOTION_DDOT":"0.0000000000000","ARG_OF_PERICENTER":"56.9037","BSTAR":"0.00389610000000","SEMIMAJOR_AXIS":"6917.738","CENTER_NAME":"EARTH","OBJECT_ID":"2022-053AD","TIME_SYSTEM":"UTC","MEAN_MOTION":"15.08886656","RCS_SIZE":"LARGE","APOAPSIS":"540.331","MEAN_ELEMENT_THEORY":"SGP4","TLE_LINE2":"2 52683  53.2167 154.0364 0001052  56.9037 303.2056 15.08886656 41312","MEAN_ANOMALY":"303.2056","EPHEMERIS_TYPE":"0","EPOCH":"2023-02-08T18:44:51.890496","PERIAPSIS":"538.875","CLASSIFICATION_TYPE":"U","ECCENTRICITY":"0.00010520","SITE":"AFETR","LAUNCH_DATE":"2022-05-18","NORAD_CAT_ID":"52683","PERIOD":"95.435","OBJECT_NAME":"STARLINK-4039","MEAN_MOTION_DOT":"0.00062347"},{"GP_ID":"224859491","FILE":"3780893","REV_AT_EPOCH":"4130","ELEMENT_SET_NO":"999","RA_OF_ASC_NODE":"154.2570","COUNTRY_CODE":"US","REF_FRAME":"TEME","OBJECT_TYPE":"PAYLOAD","DECAY_DATE":null,"MEAN_MOTION_DDOT":"0.0000000000000","ARG_OF_PERICENTER":"58.9616","TLE_LINE1":"1 52684U 22053AE  23039.72964129 -.00000024  00000-0  16595-4 0  9991","INCLINATION":"53.2170","APOAPSIS":"540.706","MEAN_ELEMENT_THEORY":"SGP4","RCS_SIZE":"LARGE","TLE_LINE2":"2 52684  53.2170 154.2570 0001421  58.9616 301.1515 15.08847283 41302","SEMIMAJOR_AXIS":"6917.858","CENTER_NAME":"EARTH","OBJECT_ID":"2022-053AE","BSTAR":"0.00001659500000","MEAN_MOTION":"15.08847283","TIME_SYSTEM":"UTC","EPHEMERIS_TYPE":"0","EPOCH":"2023-02-08T17:30:41.007456","MEAN_ANOMALY":"301.1515","LAUNCH_DATE":"2022-05-18","PERIOD":"95.437","NORAD_CAT_ID":"52684","PERIAPSIS":"538.740","CLASSIFICATION_TYPE":"U","ECCENTRICITY":"0.00014210","SITE":"AFETR","MEAN_MOTION_DOT":"-0.00000024","OBJECT_NAME":"STARLINK-4014"},{"INCLINATION":"53.2185","TLE_LINE1":"1 52685U 22053AF  23039.64129105 -.00000178  00000-0  69651-5 0  9992","DECAY_DATE":null,"MEAN_MOTION_DDOT":"0.0000000000000","ARG_OF_PERICENTER":"20.5667","OBJECT_TYPE":"PAYLOAD","REF_FRAME":"TEME","COUNTRY_CODE":"US","RA_OF_ASC_NODE":"154.6615","REV_AT_EPOCH":"4127","FILE":"3780893","GP_ID":"224859242","ELEMENT_SET_NO":"999","OBJECT_NAME":"STARLINK-4029","MEAN_MOTION_DOT":"-0.00000178","CLASSIFICATION_TYPE":"U","PERIAPSIS":"537.454","ECCENTRICITY":"0.00032640","SITE":"AFETR","LAUNCH_DATE":"2022-05-18","NORAD_CAT_ID":"52685","PERIOD":"95.437","MEAN_ANOMALY":"339.5456","EPHEMERIS_TYPE":"0","EPOCH":"2023-02-08T15:23:27.546720","BSTAR":"0.00000696510000","SEMIMAJOR_AXIS":"6917.847","OBJECT_ID":"2022-053AF","CENTER_NAME":"EARTH","TIME_SYSTEM":"UTC","MEAN_MOTION":"15.08851017","RCS_SIZE":"LARGE","APOAPSIS":"541.970","MEAN_ELEMENT_THEORY":"SGP4","TLE_LINE2":"2 52685  53.2185 154.6615 0003264  20.5667 339.5456 15.08851017 41276"},{"ELEMENT_SET_NO":"999","GP_ID":"224860493","FILE":"3780893","REV_AT_EPOCH":"4129","RA_OF_ASC_NODE":"154.3123","COUNTRY_CODE":"US","REF_FRAME":"TEME","OBJECT_TYPE":"PAYLOAD","MEAN_MOTION_DDOT":"0.0000000000000","ARG_OF_PERICENTER":"107.5763","DECAY_DATE":null,"TLE_LINE1":"1 52686U 22053AG  23039.71859921  .00001638  00000-0  12091-3 0  9992","INCLINATION":"53.2177","TLE_LINE2":"2 52686  53.2177 154.3123 0001294 107.5763 252.5371 15.08852333 41297","MEAN_ELEMENT_THEORY":"SGP4","APOAPSIS":"540.603","RCS_SIZE":"LARGE","MEAN_MOTION":"15.08852333","TIME_SYSTEM":"UTC","SEMIMAJOR_AXIS":"6917.843","OBJECT_ID":"2022-053AG","CENTER_NAME":"EARTH","BSTAR":"0.00012091000000","EPOCH":"2023-02-08T17:14:46.971744","EPHEMERIS_TYPE":"0","MEAN_ANOMALY":"252.5371","PERIOD":"95.437","NORAD_CAT_ID":"52686","LAUNCH_DATE":"2022-05-18","ECCENTRICITY":"0.00012940","SITE":"AFETR","CLASSIFICATION_TYPE":"U","PERIAPSIS":"538.813","MEAN_MOTION_DOT":"0.00001638","OBJECT_NAME":"STARLINK-4005"},{"DECAY_DATE":null,"MEAN_MOTION_DDOT":"0.0000000000000","ARG_OF_PERICENTER":"74.0209","INCLINATION":"53.2159","TLE_LINE1":"1 52687U 22053AH  23039.63765425 -.00000194  00000-0  58688-5 0  9990","FILE":"3780893","REV_AT_EPOCH":"4127","GP_ID":"224860244","ELEMENT_SET_NO":"999","RA_OF_ASC_NODE":"154.6767","COUNTRY_CODE":"US","OBJECT_TYPE":"PAYLOAD","REF_FRAME":"TEME","LAUNCH_DATE":"2022-05-18","NORAD_CAT_ID":"52687","PERIOD":"95.438","CLASSIFICATION_TYPE":"U","PERIAPSIS":"538.942","SITE":"AFETR","ECCENTRICITY":"0.00011740","MEAN_MOTION_DOT":"-0.00000194","OBJECT_NAME":"STARLINK-3981","RCS_SIZE":"LARGE","APOAPSIS":"540.566","MEAN_ELEMENT_THEORY":"SGP4","TLE_LINE2":"2 52687  53.2159 154.6767 0001174  74.0209 286.0913 15.08837102 41274","BSTAR":"0.00000586880000","OBJECT_ID":"2022-053AH","SEMIMAJOR_AXIS":"6917.889","CENTER_NAME":"EARTH","TIME_SYSTEM":"UTC","MEAN_MOTION":"15.08837102","EPHEMERIS_TYPE":"0","EPOCH":"2023-02-08T15:18:13.327200","MEAN_ANOMALY":"286.0913"},{"TLE_LINE2":"2 52688  53.2167 154.9386 0001262 117.9742 242.1378 15.08837155 41266","APOAPSIS":"540.627","MEAN_ELEMENT_THEORY":"SGP4","RCS_SIZE":"LARGE","MEAN_MOTION":"15.08837155","TIME_SYSTEM":"UTC","SEMIMAJOR_AXIS":"6917.889","CENTER_NAME":"EARTH","OBJECT_ID":"2022-053AJ","BSTAR":"0.00003763900000","EPOCH":"2023-02-08T13:54:47.891808","EPHEMERIS_TYPE":"0","MEAN_ANOMALY":"242.1378","PERIOD":"95.438","NORAD_CAT_ID":"52688","LAUNCH_DATE":"2022-05-18","SITE":"AFETR","ECCENTRICITY":"0.00012620","CLASSIFICATION_TYPE":"U","PERIAPSIS":"538.881","MEAN_MOTION_DOT":"0.00000311","OBJECT_NAME":"STARLINK-4032","ELEMENT_SET_NO":"999","GP_ID":"224824930","REV_AT_EPOCH":"4126","FILE":"3780324","RA_OF_ASC_NODE":"154.9386","COUNTRY_CODE":"US","REF_FRAME":"TEME","OBJECT_TYPE":"PAYLOAD","MEAN_MOTION_DDOT":"0.0000000000000","ARG_OF_PERICENTER":"117.9742","DECAY_DATE":null,"TLE_LINE1":"1 52688U 22053AJ  23039.57972097  .00000311  00000-0  37639-4 0  9991","INCLINATION":"53.2167"},{"DECAY_DATE":null,"MEAN_MOTION_DDOT":"0.0000000000000","ARG_OF_PERICENTER":"95.6743","TLE_LINE1":"1 52689U 22053AK  23039.62660080 -.00000929  00000-0 -40265-4 0  9990","INCLINATION":"53.2146","COUNTRY_CODE":"US","REF_FRAME":"TEME","OBJECT_TYPE":"PAYLOAD","GP_ID":"224859742","FILE":"3780893","REV_AT_EPOCH":"4130","ELEMENT_SET_NO":"999","RA_OF_ASC_NODE":"154.7314","MEAN_MOTION_DOT":"-0.00000929","OBJECT_NAME":"STARLINK-4078","LAUNCH_DATE":"2022-05-18","PERIOD":"95.437","NORAD_CAT_ID":"52689","CLASSIFICATION_TYPE":"U","PERIAPSIS":"538.976","SITE":"AFETR","ECCENTRICITY":"0.00010910","EPHEMERIS_TYPE":"0","EPOCH":"2023-02-08T15:02:18.309120","MEAN_ANOMALY":"264.4373","APOAPSIS":"540.486","MEAN_ELEMENT_THEORY":"SGP4","RCS_SIZE":"LARGE","TLE_LINE2":"2 52689  53.2146 154.7314 0001091  95.6743 264.4373 15.08844753 41305","CENTER_NAME":"EARTH","SEMIMAJOR_AXIS":"6917.866","OBJECT_ID":"2022-053AK","BSTAR":"-0.00004026500000","MEAN_MOTION":"15.08844753","TIME_SYSTEM":"UTC"},{"RA_OF_ASC_NODE":"154.0499","ELEMENT_SET_NO":"999","REV_AT_EPOCH":"4129","FILE":"3780893","GP_ID":"224859994","OBJECT_TYPE":"PAYLOAD","REF_FRAME":"TEME","COUNTRY_CODE":"US","INCLINATION":"53.2155","TLE_LINE1":"1 52690U 22053AL  23039.77747865  .00010504  00000-0  67678-3 0  9999","MEAN_MOTION_DDOT":"0.0000000000000","ARG_OF_PERICENTER":"102.1646","DECAY_DATE":null,"TIME_SYSTEM":"UTC","MEAN_MOTION":"15.08856616","BSTAR":"0.00067678000000","OBJECT_ID":"2022-053AL","SEMIMAJOR_AXIS":"6917.830","CENTER_NAME":"EARTH","TLE_LINE2":"2 52690  53.2155 154.0499 0001438 102.1646 257.9508 15.08856616 41291","RCS_SIZE":"LARGE","MEAN_ELEMENT_THEORY":"SGP4","APOAPSIS":"540.689","MEAN_ANOMALY":"257.9508","EPOCH":"2023-02-08T18:39:34.155360","EPHEMERIS_TYPE":"0","SITE":"AFETR","ECCENTRICITY":"0.00014380","PERIAPSIS":"538.700","CLASSIFICATION_TYPE":"U","NORAD_CAT_ID":"52690","PERIOD":"95.437","LAUNCH_DATE":"2022-05-18","OBJECT_NAME":"STARLINK-4035","MEAN_MOTION_DOT":"0.00010504"},{"REF_FRAME":"TEME","OBJECT_TYPE":"PAYLOAD","COUNTRY_CODE":"US","RA_OF_ASC_NODE":"154.7500","GP_ID":"224860744","REV_AT_EPOCH":"4130","FILE":"3780893","ELEMENT_SET_NO":"999","TLE_LINE1":"1 52691U 22053AM  23039.62286732  .00009704  00000-0  62586-3 0  9998","INCLINATION":"53.2172","DECAY_DATE":null,"MEAN_MOTION_DDOT":"0.0000000000000","ARG_OF_PERICENTER":"77.4349","MEAN_ANOMALY":"282.6812","EPHEMERIS_TYPE":"0","EPOCH":"2023-02-08T14:56:55.736448","SEMIMAJOR_AXIS":"6917.682","CENTER_NAME":"EARTH","OBJECT_ID":"2022-053AM","BSTAR":"0.00062586000000","MEAN_MOTION":"15.08904973","TIME_SYSTEM":"UTC","APOAPSIS":"540.591","MEAN_ELEMENT_THEORY":"SGP4","RCS_SIZE":"LARGE","TLE_LINE2":"2 52691  53.2172 154.7500 0001509  77.4349 282.6812 15.08904973 41309","OBJECT_NAME":"STARLINK-3945","MEAN_MOTION_DOT":"0.00009704","CLASSIFICATION_TYPE":"U","PERIAPSIS":"538.503","SITE":"AFETR","ECCENTRICITY":"0.00015090","LAUNCH_DATE":"2022-05-18","PERIOD":"95.433","NORAD_CAT_ID":"52691"},{"SITE":"AFETR","ECCENTRICITY":"0.00013660","PERIAPSIS":"538.788","CLASSIFICATION_TYPE":"U","NORAD_CAT_ID":"52692","PERIOD":"95.437","LAUNCH_DATE":"2022-05-18","OBJECT_NAME":"STARLINK-3993","MEAN_MOTION_DOT":"0.00001674","TIME_SYSTEM":"UTC","MEAN_MOTION":"15.08844205","BSTAR":"0.00012324000000","CENTER_NAME":"EARTH","SEMIMAJOR_AXIS":"6917.868","OBJECT_ID":"2022-053AN","TLE_LINE2":"2 52692  53.2175 154.6997 0001366  72.2277 287.8864 15.08844205 41301","RCS_SIZE":"LARGE","MEAN_ELEMENT_THEORY":"SGP4","APOAPSIS":"540.678","MEAN_ANOMALY":"287.8864","EPOCH":"2023-02-08T15:12:54.326304","EPHEMERIS_TYPE":"0","INCLINATION":"53.2175","TLE_LINE1":"1 52692U 22053AN  23039.63396211  .00001674  00000-0  12324-3 0  9997","MEAN_MOTION_DDOT":"0.0000000000000","ARG_OF_PERICENTER":"72.2277","DECAY_DATE":null,"RA_OF_ASC_NODE":"154.6997","ELEMENT_SET_NO":"999","FILE":"3780893","REV_AT_EPOCH":"4130","GP_ID":"224859492","OBJECT_TYPE":"PAYLOAD","REF_FRAME":"TEME","COUNTRY_CODE":"US"}];
